{
  "type": "FeatureCollection",
  "features": [
    {
      "type": "Feature",
      "properties": {
        "norad_id": 31937,
        "name": "FENGYUN 1C DEB",
        "group": "fengyun-1c-debris",
        "lat": 61.510801701017066,
        "lon": -76.5084463997514,
        "alt_km": 730.8963239961513,
        "timestamp": "2025-12-21T03:56:51.120391+00:00",
        "meta_object_name": "FENGYUN 1C DEB",
        "meta_object_id": "1999-025CMN",
        "meta_epoch": "2025-12-06T23:52:27.149088",
        "meta_mean_motion": 14.78022374,
        "meta_eccentricity": 0.0162921,
        "meta_inclination": 99.2561,
        "meta_ra_of_asc_node": 69.7316,
        "meta_arg_of_pericenter": 315.3928,
        "meta_mean_anomaly": 43.4262,
        "meta_ephemeris_type": 0,
        "meta_classification_type": "U",
        "meta_norad_cat_id": 31937,
        "meta_element_set_no": 999,
        "meta_rev_at_epoch": 65984,
        "meta_bstar": 0.0011794166,
        "meta_mean_motion_dot": 0.00010567,
        "meta_mean_motion_ddot": 0,
        "tle_line1": "1 31937U 99025CMN 25340.99475867  .00010567  00000+0  11794-2 0  9999",
        "tle_line2": "2 31937  99.2561  69.7316 0162921 315.3928  43.4262 14.78022374659842"
      },
      "geometry": {
        "type": "Point",
        "coordinates": [
          -76.5084463997514,
          61.510801701017066
        ]
      }
    },
    {
      "type": "Feature",
      "properties": {
        "norad_id": 31938,
        "name": "FENGYUN 1C DEB",
        "group": "fengyun-1c-debris",
        "lat": -55.99183183490729,
        "lon": -165.707315474156,
        "alt_km": 688.3152482307487,
        "timestamp": "2025-12-21T03:56:51.120401+00:00",
        "meta_object_name": "FENGYUN 1C DEB",
        "meta_object_id": "1999-025CMP",
        "meta_epoch": "2025-12-20T01:12:17.760384",
        "meta_mean_motion": 14.95690984,
        "meta_eccentricity": 0.01527439,
        "meta_inclination": 98.9284,
        "meta_ra_of_asc_node": 26.4976,
        "meta_arg_of_pericenter": 42.8113,
        "meta_mean_anomaly": 318.4881,
        "meta_ephemeris_type": 0,
        "meta_classification_type": "U",
        "meta_norad_cat_id": 31938,
        "meta_element_set_no": 999,
        "meta_rev_at_epoch": 99245,
        "meta_bstar": 0.00031155939,
        "meta_mean_motion_dot": 4.3e-05,
        "meta_mean_motion_ddot": 0,
        "tle_line1": "1 31938U 99025CMP 25354.05020556  .00004300  00000+0  31156-3 0  9996",
        "tle_line2": "2 31938  98.9284  26.4976 0152743  42.8113 318.4881 14.95690984992458"
      },
      "geometry": {
        "type": "Point",
        "coordinates": [
          -165.707315474156,
          -55.99183183490729
        ]
      }
    },
    {
      "type": "Feature",
      "properties": {
        "norad_id": 31944,
        "name": "FENGYUN 1C DEB",
        "group": "fengyun-1c-debris",
        "lat": 80.36411823100495,
        "lon": 70.15606380877544,
        "alt_km": 875.231462208305,
        "timestamp": "2025-12-21T03:56:51.120412+00:00",
        "meta_object_name": "FENGYUN 1C DEB",
        "meta_object_id": "1999-025CMV",
        "meta_epoch": "2025-12-12T04:22:40.814976",
        "meta_mean_motion": 14.11787529,
        "meta_eccentricity": 0.0151811,
        "meta_inclination": 99.2035,
        "meta_ra_of_asc_node": 133.6743,
        "meta_arg_of_pericenter": 5.8705,
        "meta_mean_anomaly": 173.5719,
        "meta_ephemeris_type": 0,
        "meta_classification_type": "U",
        "meta_norad_cat_id": 31944,
        "meta_element_set_no": 999,
        "meta_rev_at_epoch": 62902,
        "meta_bstar": 0.0007470391,
        "meta_mean_motion_dot": 1.471e-05,
        "meta_mean_motion_ddot": 0,
        "tle_line1": "1 31944U 99025CMV 25346.18241684  .00001471  00000+0  74704-3 0  9997",
        "tle_line2": "2 31944  99.2035 133.6743 0151811   5.8705 173.5719 14.11787529629027"
      },
      "geometry": {
        "type": "Point",
        "coordinates": [
          70.15606380877544,
          80.36411823100495
        ]
      }
    },
    {
      "type": "Feature",
      "properties": {
        "norad_id": 31945,
        "name": "FENGYUN 1C DEB",
        "group": "fengyun-1c-debris",
        "lat": -13.362974275379086,
        "lon": 73.76903730693071,
        "alt_km": 821.9283282482438,
        "timestamp": "2025-12-21T03:56:51.120422+00:00",
        "meta_object_name": "FENGYUN 1C DEB",
        "meta_object_id": "1999-025CMW",
        "meta_epoch": "2025-12-19T04:41:19.522176",
        "meta_mean_motion": 14.20840304,
        "meta_eccentricity": 0.0060997,
        "meta_inclination": 98.9614,
        "meta_ra_of_asc_node": 69.6247,
        "meta_arg_of_pericenter": 268.4423,
        "meta_mean_anomaly": 90.9765,
        "meta_ephemeris_type": 0,
        "meta_classification_type": "U",
        "meta_norad_cat_id": 31945,
        "meta_element_set_no": 999,
        "meta_rev_at_epoch": 95287,
        "meta_bstar": 0.0010945,
        "meta_mean_motion_dot": 2.364e-05,
        "meta_mean_motion_ddot": 0,
        "tle_line1": "1 31945U 99025CMW 25353.19536484  .00002364  00000+0  10945-2 0  9990",
        "tle_line2": "2 31945  98.9614  69.6247 0060997 268.4423  90.9765 14.20840304952878"
      },
      "geometry": {
        "type": "Point",
        "coordinates": [
          73.76903730693071,
          -13.362974275379086
        ]
      }
    },
    {
      "type": "Feature",
      "properties": {
        "norad_id": 31946,
        "name": "FENGYUN 1C DEB",
        "group": "fengyun-1c-debris",
        "lat": 81.02576566469347,
        "lon": -27.375184300919226,
        "alt_km": 802.8443806632795,
        "timestamp": "2025-12-21T03:56:51.120431+00:00",
        "meta_object_name": "FENGYUN 1C DEB",
        "meta_object_id": "1999-025CMX",
        "meta_epoch": "2025-12-16T09:57:01.816704",
        "meta_mean_motion": 14.16452802,
        "meta_eccentricity": 0.00819225,
        "meta_inclination": 98.8983,
        "meta_ra_of_asc_node": 50.6388,
        "meta_arg_of_pericenter": 39.1679,
        "meta_mean_anomaly": 321.5385,
        "meta_ephemeris_type": 0,
        "meta_classification_type": "U",
        "meta_norad_cat_id": 31946,
        "meta_element_set_no": 999,
        "meta_rev_at_epoch": 64060,
        "meta_bstar": 0.00089849331,
        "meta_mean_motion_dot": 1.802e-05,
        "meta_mean_motion_ddot": 0,
        "tle_line1": "1 31946U 99025CMX 25350.41460436  .00001802  00000+0  89849-3 0  9992",
        "tle_line2": "2 31946  98.8983  50.6388 0081922  39.1679 321.5385 14.16452802640603"
      },
      "geometry": {
        "type": "Point",
        "coordinates": [
          -27.375184300919226,
          81.02576566469347
        ]
      }
    },
    {
      "type": "Feature",
      "properties": {
        "norad_id": 31948,
        "name": "FENGYUN 1C DEB",
        "group": "fengyun-1c-debris",
        "lat": 67.27660896736488,
        "lon": -100.49130798018446,
        "alt_km": 797.1676522357429,
        "timestamp": "2025-12-21T03:56:51.120440+00:00",
        "meta_object_name": "FENGYUN 1C DEB",
        "meta_object_id": "1999-025CMZ",
        "meta_epoch": "2025-12-18T10:10:15.056832",
        "meta_mean_motion": 14.28329763,
        "meta_eccentricity": 0.00234205,
        "meta_inclination": 99.3923,
        "meta_ra_of_asc_node": 53.282,
        "meta_arg_of_pericenter": 5.6805,
        "meta_mean_anomaly": 59.9549,
        "meta_ephemeris_type": 0,
        "meta_classification_type": "U",
        "meta_norad_cat_id": 31948,
        "meta_element_set_no": 999,
        "meta_rev_at_epoch": 95109,
        "meta_bstar": 0.0011732562,
        "meta_mean_motion_dot": 2.889e-05,
        "meta_mean_motion_ddot": 0,
        "tle_line1": "1 31948U 99025CMZ 25352.42378538  .00002889  00000+0  11733-2 0  9990",
        "tle_line2": "2 31948  99.3923  53.2820 0023420   5.6805  59.9549 14.28329763951097"
      },
      "geometry": {
        "type": "Point",
        "coordinates": [
          -100.49130798018446,
          67.27660896736488
        ]
      }
    },
    {
      "type": "Feature",
      "properties": {
        "norad_id": 31949,
        "name": "FENGYUN 1C DEB",
        "group": "fengyun-1c-debris",
        "lat": -52.377732095269636,
        "lon": -8.422205790033908,
        "alt_km": 884.6153549261253,
        "timestamp": "2025-12-21T03:56:51.120449+00:00",
        "meta_object_name": "FENGYUN 1C DEB",
        "meta_object_id": "1999-025CNA",
        "meta_epoch": "2025-11-23T05:03:27.897984",
        "meta_mean_motion": 14.1687356,
        "meta_eccentricity": 0.01252295,
        "meta_inclination": 98.5419,
        "meta_ra_of_asc_node": 313.4803,
        "meta_arg_of_pericenter": 269.0533,
        "meta_mean_anomaly": 89.6292,
        "meta_ephemeris_type": 0,
        "meta_classification_type": "U",
        "meta_norad_cat_id": 31949,
        "meta_element_set_no": 999,
        "meta_rev_at_epoch": 95228,
        "meta_bstar": 0.00041514195,
        "meta_mean_motion_dot": 8.56e-06,
        "meta_mean_motion_ddot": 0,
        "tle_line1": "1 31949U 99025CNA 25327.21073956  .00000856  00000+0  41514-3 0  9999",
        "tle_line2": "2 31949  98.5419 313.4803 0125229 269.0533  89.6292 14.16873560952288"
      },
      "geometry": {
        "type": "Point",
        "coordinates": [
          -8.422205790033908,
          -52.377732095269636
        ]
      }
    }
  ]
}